GLOBALSTAR M040         
1 25622U 99004B   25151.64503028 -.00000112  00000+0 -44911-4 0  9999
2 25622  51.9903 107.9412 0001192   7.6103 163.9552 12.62010935213163
GLOBALSTAR M036         
1 25623U 99004C   25151.68883262  .00000020  00000+0  15003-2 0  9999
2 25623  51.9973 283.8087 0011009  24.8589 348.2882 11.86601760177025
GLOBALSTAR M038         
1 25624U 99004D   25151.65792581 -.00000080  00000+0  12551-3 0  9993
2 25624  51.9953 119.1725 0002167  17.7040 152.6953 12.32527792200333
GLOBALSTAR M046         
1 25651U 99012C   25151.63865050 -.00000191  00000+0 -11330-2 0  9999
2 25651  52.0060 286.6263 0002124 201.4159 171.9875 12.09408534182014
GLOBALSTAR M037         
1 25652U 99012D   25151.97068902 -.00000063  00000+0  22901-3 0  9992
2 25652  51.9997 233.4477 0002496 151.9466  19.0328 12.62445562209220
